[{"OBJECT_NAME":"ZACUBE-1 (TSHEPISOSAT)","OBJECT_ID":"2013-066B","EPOCH":"2026-03-09T22:19:27.469056","MEAN_MOTION":15.00329659,"ECCENTRICITY":0.00425262,"INCLINATION":97.8171,"RA_OF_ASC_NODE":30.7553,"ARG_OF_PERICENTER":219.1599,"MEAN_ANOMALY":140.6545,"EPHEMERIS_TYPE":0,"CLASSIFICATION_TYPE":"U","NORAD_CAT_ID":39417,"ELEMENT_SET_NO":999,"REV_AT_EPOCH":66584,"BSTAR":0.00042975473,"MEAN_MOTION_DOT":5.431e-5,"MEAN_MOTION_DDOT":0},{"OBJECT_NAME":"STARLINK-34372","OBJECT_ID":"2025-123L","EPOCH":"2026-03-09T17:30:27.821952","MEAN_MOTION":14.98311105,"ECCENTRICITY":0.00031033,"INCLINATION":70.0026,"RA_OF_ASC_NODE":194.3892,"ARG_OF_PERICENTER":269.7831,"MEAN_ANOMALY":90.2972,"EPHEMERIS_TYPE":0,"CLASSIFICATION_TYPE":"U","NORAD_CAT_ID":64301,"ELEMENT_SET_NO":999,"REV_AT_EPOCH":4162,"BSTAR":-0.00020361241,"MEAN_MOTION_DOT":-2.52e-5,"MEAN_MOTION_DDOT":0}]
